X;Y;type;name;address;com_insee;com_nom;geometry
2.4880268;48.7511444997541;pharmacy;Pharmacie Cholay Colteau;;94044;Limeil-Brévannes;POINT (2.4880268 48.7511444997541)
2.5262909;48.7749166997481;cafe;;;94071;Sucy-en-Brie;POINT (2.5262909 48.7749166997481)
2.5265302;48.7617230997514;pharmacy;;;94071;Sucy-en-Brie;POINT (2.5265302 48.7617230997514)
2.5340294;48.7214819997614;bakery;;;94075;Villecresnes;POINT (2.5340294 48.7214819997614)
2.5853354;48.8053196997406;bakery;Boulangerie du plessis;1 Avenue Gonzalve;94059;Le Plessis-Trévise;POINT (2.5853354 48.8053196997406)
2.4254493;48.7894390997445;fast_food;King Poulet;Rue de Choisy;94002;Alfortville;POINT (2.4254493 48.7894390997445)
2.5310753;48.7966087997428;bakery;;;94019;Chennevières-sur-Marne;POINT (2.5310753 48.7966087997428)
2.5182884;48.7723641997488;cafe;;;94071;Sucy-en-Brie;POINT (2.5182884 48.7723641997488)
2.4248498;48.7950307997432;supermarket;Franprix;;94002;Alfortville;POINT (2.4248498 48.7950307997432)
2.4200015;48.8041389997409;restaurant;La Rogina;;94002;Alfortville;POINT (2.4200015 48.8041389997409)
2.4564437;48.779578999747;fast_food;McDonald's;;94028;Créteil;POINT (2.4564437 48.779578999747)
2.4257208;48.7901281997444;bar;Tabacos;Place Petit Pont;94002;Alfortville;POINT (2.4257208 48.7901281997444)
2.5301361;48.7961822997429;cafe;Au Repos de la Côte;;94019;Chennevières-sur-Marne;POINT (2.5301361 48.7961822997429)
2.4563558;48.7746862997482;pharmacy;Pharmacie du Lac;;94028;Créteil;POINT (2.4563558 48.7746862997482)
2.5351408;48.7918808997439;fast_food;;;94019;Chennevières-sur-Marne;POINT (2.5351408 48.7918808997439)
2.4716134;48.7662324997503;fast_food;Rue Fernand Pouillon;;94028;Créteil;POINT (2.4716134 48.7662324997503)
2.4647084;48.7984842997423;pharmacy;Pharmacie Face à l'Interco;;94028;Créteil;POINT (2.4647084 48.7984842997423)
2.4807732;48.7477343997549;pharmacy;Pharmacie des Tilleuls;1 Rue Julie-Victoire Daubié;94044;Limeil-Brévannes;POINT (2.4807732 48.7477343997549)
2.5423151;48.8028691997412;cafe;Le Cis Bar;;94019;Chennevières-sur-Marne;POINT (2.5423151 48.8028691997412)
2.5358147;48.763514299751;pharmacy;Pharmacie Couffignal;;94071;Sucy-en-Brie;POINT (2.5358147 48.763514299751)
2.530473;48.7964192997428;pharmacy;;;94019;Chennevières-sur-Marne;POINT (2.530473 48.7964192997428)
2.4241191;48.803921799741;restaurant;;;94002;Alfortville;POINT (2.4241191 48.803921799741)
2.5755363;48.7903004997443;bar;Le Café de la Mairie;;94060;La Queue-en-Brie;POINT (2.5755363 48.7903004997443)
2.5498269;48.795721399743;restaurant;Poulets Pedra;16 Route de Provins;94055;Ormesson-sur-Marne;POINT (2.5498269 48.795721399743)
2.4573952;48.7729935997486;bakery;;;94028;Créteil;POINT (2.4573952 48.7729935997486)
2.4602155;48.8026287997413;bakery;;;94028;Créteil;POINT (2.4602155 48.8026287997413)
2.4706222;48.7781987997473;pharmacy;Pharmacie de l'Abbaye;;94028;Créteil;POINT (2.4706222 48.7781987997473)
2.4581366;48.779624999747;cafe;Starbucks;;94028;Créteil;POINT (2.4581366 48.779624999747)
2.5740588;48.7905512997443;bakery;Au Cœur du Pain;Rue Edgar Degas;94060;La Queue-en-Brie;POINT (2.5740588 48.7905512997443)
2.5508096;48.7953745997431;restaurant;Continental;;94055;Ormesson-sur-Marne;POINT (2.5508096 48.7953745997431)
2.4203235;48.803698399741;restaurant;Doudou Kreyol;;94002;Alfortville;POINT (2.4203235 48.803698399741)
2.4586166;48.7954206997431;supermarket;Lidl;;94028;Créteil;POINT (2.4586166 48.7954206997431)
2.5184172;48.7724675997487;bakery;Boulangerie Saint-Honoré;;94071;Sucy-en-Brie;POINT (2.5184172 48.7724675997487)
2.5768141;48.7800600997469;fast_food;Casa Pizza;;94060;La Queue-en-Brie;POINT (2.5768141 48.7800600997469)
2.4210762;48.8025622997413;restaurant;Ruby Delta;;94002;Alfortville;POINT (2.4210762 48.8025622997413)
2.4233927;48.7984975997423;restaurant;Shiv Sankar;;94002;Alfortville;POINT (2.4233927 48.7984975997423)
2.466954;48.7889349997447;restaurant;Pizza Hut;;94028;Créteil;POINT (2.466954 48.7889349997447)
2.5192381;48.7519146997538;cafe;Au P'tit Vendéen;;94004;Boissy-Saint-Léger;POINT (2.5192381 48.7519146997538)
2.5428866;48.7291315997595;restaurant;;;94048;Marolles-en-Brie;POINT (2.5428866 48.7291315997595)
2.466878;48.7890139997447;supermarket;Carrefour City;;94028;Créteil;POINT (2.466878 48.7890139997447)
2.4250334;48.795829399743;cafe;Le Tom Tip;;94002;Alfortville;POINT (2.4250334 48.795829399743)
2.5200041;48.7700541997493;cafe;Café des Sports;;94071;Sucy-en-Brie;POINT (2.5200041 48.7700541997493)
2.5069351;48.7527328997537;cafe;Tabac de la Gare;;94004;Boissy-Saint-Léger;POINT (2.5069351 48.7527328997537)
2.4610953;48.7930958997436;pharmacy;Pharmacie Edard;;94028;Créteil;POINT (2.4610953 48.7930958997436)
2.5180551;48.771604099749;cinema;;;94071;Sucy-en-Brie;POINT (2.5180551 48.771604099749)
2.5504439;48.7765984997477;restaurant;La Latina;3 Route de la Queue en Brie;94053;Noiseau;POINT (2.5504439 48.7765984997477)
2.5753009;48.7292334997595;mall;Domaine de Santeny;;94070;Santeny;POINT (2.5753009 48.7292334997595)
2.4119472;48.8139556997385;restaurant;Edera;3 Rue de Charenton;94002;Alfortville;POINT (2.4119472 48.8139556997385)
2.4266801;48.7858078997455;bakery;Boulangerie-Pâtisserie EL Baraka;151 Rue Étienne Dolet;94002;Alfortville;POINT (2.4266801 48.7858078997455)
2.5217008;48.7814391997465;bakery;Boulangerie Pâtisserie;;94055;Ormesson-sur-Marne;POINT (2.5217008 48.7814391997465)
2.5540163;48.7925165997438;restaurant;Matsuko;76 Route de Provins;94055;Ormesson-sur-Marne;POINT (2.5540163 48.7925165997438)
2.5413602;48.8012977997416;fast_food;Sushi Wasabi 7;;94019;Chennevières-sur-Marne;POINT (2.5413602 48.8012977997416)
2.5348401;48.7902500997444;bakery;L'Atelier de Tia;;94055;Ormesson-sur-Marne;POINT (2.5348401 48.7902500997444)
2.5351569;48.7899264997444;fast_food;Chez Pedro;;94055;Ormesson-sur-Marne;POINT (2.5351569 48.7899264997444)
2.5148539;48.775431999748;fast_food;Restaurant Istanbul;;94071;Sucy-en-Brie;POINT (2.5148539 48.775431999748)
2.4643877;48.7809426997466;pharmacy;Pharmacie Rehana;2 Rue Edouard Manet;94028;Créteil;POINT (2.4643877 48.7809426997466)
2.5328965;48.791559899744;restaurant;Maison du Soleil;;94055;Ormesson-sur-Marne;POINT (2.5328965 48.791559899744)
2.468095;48.7686827997497;fast_food;L'Arena;;94028;Créteil;POINT (2.468095 48.7686827997497)
2.5751792;48.8092943997396;restaurant;Koyama Sushi;14 Avenue du Général de Gaulle;94059;Le Plessis-Trévise;POINT (2.5751792 48.8092943997396)
2.414202;48.8105828997393;fast_food;Di Napoli Pizza;96 Rue Véron;94002;Alfortville;POINT (2.414202 48.8105828997393)
2.57323;48.8103589997394;restaurant;O'massala;11 Avenue du Général de Gaulle;94059;Le Plessis-Trévise;POINT (2.57323 48.8103589997394)
2.4685456;48.7682266997498;supermarket;Franprix;;94028;Créteil;POINT (2.4685456 48.7682266997498)
2.5720926;48.7250323997605;bar;;;94070;Santeny;POINT (2.5720926 48.7250323997605)
2.5718255;48.7811415997466;restaurant;;;94060;La Queue-en-Brie;POINT (2.5718255 48.7811415997466)
2.4730871;48.7523863997537;restaurant;Brasserie Des Temps Durables;Place ARTHUR RIMBAUD;94044;Limeil-Brévannes;POINT (2.4730871 48.7523863997537)
2.5768892;48.7800493997469;fast_food;Allo Sushi;;94060;La Queue-en-Brie;POINT (2.5768892 48.7800493997469)
2.5391659;48.7279394997598;sports;Escape;;94048;Marolles-en-Brie;POINT (2.5391659 48.7279394997598)
2.4631196;48.7924065997438;bakery;Estaëlle;;94028;Créteil;POINT (2.4631196 48.7924065997438)
2.545598;48.7932109997436;medical_supply;;;94019;Chennevières-sur-Marne;POINT (2.545598 48.7932109997436)
2.5182048;48.7721919997488;supermarket;;;94071;Sucy-en-Brie;POINT (2.5182048 48.7721919997488)
2.5213262;48.7706089997492;bar;Le Quercy;;94071;Sucy-en-Brie;POINT (2.5213262 48.7706089997492)
2.4658064;48.7895312997445;pharmacy;Pharmacie Dahan;;94028;Créteil;POINT (2.4658064 48.7895312997445)
2.5873245;48.8017283997415;mall;Communauté Emmaüs;;94059;Le Plessis-Trévise;POINT (2.5873245 48.8017283997415)
2.4735825;48.7523658997537;restaurant;La Bonne Pizza;13 Place Arthur Rimbaud;94044;Limeil-Brévannes;POINT (2.4735825 48.7523658997537)
2.4706115;48.7952513997431;restaurant;Domaine Saint-Catherine;22-24 allée centrale, île Brise-Pain;94028;Créteil;POINT (2.4706115 48.7952513997431)
2.5094116;48.7717259997489;pharmacy;Pharmacie de la gare;;94071;Sucy-en-Brie;POINT (2.5094116 48.7717259997489)
2.5061337;48.7531507997535;cafe;Au Bar à Bières;;94004;Boissy-Saint-Léger;POINT (2.5061337 48.7531507997535)
2.4141442;48.8132592997386;bakery;;;94002;Alfortville;POINT (2.4141442 48.8132592997386)
2.515393;48.775466399748;cafe;Le Manito;;94071;Sucy-en-Brie;POINT (2.515393 48.775466399748)
2.4190239;48.8052779997406;bar;Café de la Paix;;94002;Alfortville;POINT (2.4190239 48.8052779997406)
2.5720397;48.8107356997393;bar;Le Trévise;20 Avenue Ardouin;94059;Le Plessis-Trévise;POINT (2.5720397 48.8107356997393)
2.5410884;48.8014871997416;pharmacy;Proxipharma;;94019;Chennevières-sur-Marne;POINT (2.5410884 48.8014871997416)
2.5402611;48.8016444997415;bakery;La Canaveroise;;94019;Chennevières-sur-Marne;POINT (2.5402611 48.8016444997415)
2.4312272;48.7856846997455;pharmacy;Pharmacie Mulard;5 Rue de Grenoble;94002;Alfortville;POINT (2.4312272 48.7856846997455)
2.4812169;48.747499799755;bakery;Bread's;3 Rue des Herbages de Sèze;94044;Limeil-Brévannes;POINT (2.4812169 48.747499799755)
2.487966;48.7517542997539;bakery;;;94044;Limeil-Brévannes;POINT (2.487966 48.7517542997539)
2.4166651;48.8101871997394;supermarket;Supermarché/Pâtisserie Dilara;34 Rue de Seine;94002;Alfortville;POINT (2.4166651 48.8101871997394)
2.5208259;48.7706485997492;sports;Sport 2000;;94071;Sucy-en-Brie;POINT (2.5208259 48.7706485997492)
2.57301;48.8099474997395;bakery;La Comtesse de Trévise;7 Ter Avenue Ardouin;94059;Le Plessis-Trévise;POINT (2.57301 48.8099474997395)
2.4576835;48.7799234997469;restaurant;Fish'tro;;94028;Créteil;POINT (2.4576835 48.7799234997469)
2.4629751;48.7788231997472;pharmacy;Pharmacie Kennedy;;94028;Créteil;POINT (2.4629751 48.7788231997472)
2.4251341;48.7950961997432;cafe;Le Printemps;;94002;Alfortville;POINT (2.4251341 48.7950961997432)
2.4578183;48.779578399747;restaurant;Factory & Co;;94028;Créteil;POINT (2.4578183 48.779578399747)
2.5332532;48.7206396997616;fast_food;Pizza Greg;;94075;Villecresnes;POINT (2.5332532 48.7206396997616)
2.4196971;48.8055802997405;bar;Brasserie de l'Hôtel de Ville;;94002;Alfortville;POINT (2.4196971 48.8055802997405)
2.4603667;48.8027340997412;cafe;;;94028;Créteil;POINT (2.4603667 48.8027340997412)
2.4624623;48.7929196997437;bakery;Boulangerie Sécher;;94028;Créteil;POINT (2.4624623 48.7929196997437)
2.4560676;48.7980140997424;pharmacy;Pharmacie Renoult;;94028;Créteil;POINT (2.4560676 48.7980140997424)
2.4253895;48.7861786997454;pharmacy;Pharmacie les Goujons;;94002;Alfortville;POINT (2.4253895 48.7861786997454)
2.4561721;48.7811704997466;bakery;Brioche Dorée;Avenue du Général De Gaulle;94028;Créteil;POINT (2.4561721 48.7811704997466)
2.4782591;48.7413893997565;restaurant;Adith;10 bis Avenue Descartes;94044;Limeil-Brévannes;POINT (2.4782591 48.7413893997565)
2.471738;48.7779724997474;bakery;;;94028;Créteil;POINT (2.471738 48.7779724997474)
2.5049807;48.7518686997539;fast_food;O'Tacos;;94004;Boissy-Saint-Léger;POINT (2.5049807 48.7518686997539)
2.446402;48.7869789997452;bakery;Paul;;94028;Créteil;POINT (2.446402 48.7869789997452)
2.4250314;48.7976724997425;cafe;;;94002;Alfortville;POINT (2.4250314 48.7976724997425)
2.512484;48.7492198997545;cafe;L'Olivier;;94004;Boissy-Saint-Léger;POINT (2.512484 48.7492198997545)
2.4633932;48.7772183997476;bakery;;;94028;Créteil;POINT (2.4633932 48.7772183997476)
2.4154533;48.8144603997383;bakery;Mira Boulangerie;30 Rue Charles de Gaulle;94002;Alfortville;POINT (2.4154533 48.8144603997383)
2.4422532;48.7752043997481;variety_store;Clash Price;;94028;Créteil;POINT (2.4422532 48.7752043997481)
2.5087398;48.7525853997537;bakery;;;94004;Boissy-Saint-Léger;POINT (2.5087398 48.7525853997537)
2.4569847;48.7733269997485;restaurant;Le Lac de l'Himalaya;18bis Esplanade des Abymes;94028;Créteil;POINT (2.4569847 48.7733269997485)
2.5332901;48.7670412997501;bakery;Au Pétrin du Fort;;94071;Sucy-en-Brie;POINT (2.5332901 48.7670412997501)
2.5204068;48.7696530997495;bar;Le Week-End;;94071;Sucy-en-Brie;POINT (2.5204068 48.7696530997495)
2.5734435;48.8096108997395;restaurant;Jade d'Asie;;94059;Le Plessis-Trévise;POINT (2.5734435 48.8096108997395)
2.4148062;48.8049789997407;bakery;Boulangerie L'Alfortvillaise;15 Place Salvador Allende;94002;Alfortville;POINT (2.4148062 48.8049789997407)
2.4559407;48.7975592997425;restaurant;Bonheur Thaï;;94028;Créteil;POINT (2.4559407 48.7975592997425)
2.521571;48.7701088997493;restaurant;Yama Yen;;94071;Sucy-en-Brie;POINT (2.521571 48.7701088997493)
2.5651645;48.7386606997571;pharmacy;Pharmacie TSIA REJANE;;94048;Marolles-en-Brie;POINT (2.5651645 48.7386606997571)
2.448325;48.7967416997427;pharmacy;Pharmacie de l'Echat;;94028;Créteil;POINT (2.448325 48.7967416997427)
2.47282390869869;48.76731952454;restaurant;Cezam;;94028;Créteil;POINT (2.47282390869869 48.76731952454)
2.53445672763183;48.787856340931;cafe;Café Das Rodas;;94055;Ormesson-sur-Marne;POINT (2.53445672763183 48.787856340931)
2.49909240569075;48.7605880387531;restaurant;Royal de Boissy;;94004;Boissy-Saint-Léger;POINT (2.49909240569075 48.7605880387531)
2.44285939776789;48.7748917626699;restaurant;Grill 168;;94028;Créteil;POINT (2.44285939776789 48.7748917626699)
2.53744960374466;48.7846393155999;restaurant;L'Escapade;;94055;Ormesson-sur-Marne;POINT (2.53744960374466 48.7846393155999)
2.5503465883717;48.7958341474994;restaurant;Le Cley;;94055;Ormesson-sur-Marne;POINT (2.5503465883717 48.7958341474994)
2.42260010245981;48.800351824786;restaurant;La Mamma;;94002;Alfortville;POINT (2.42260010245981 48.800351824786)
2.47814678143439;48.7630170276513;restaurant;La Criée;;94011;Bonneuil-sur-Marne;POINT (2.47814678143439 48.7630170276513)
2.47668785017101;48.7648109578836;restaurant;Au Bureau;;94011;Bonneuil-sur-Marne;POINT (2.47668785017101 48.7648109578836)
2.56744671691048;48.7829391800728;restaurant;;;94060;La Queue-en-Brie;POINT (2.56744671691048 48.7829391800728)
2.48730483427787;48.7661208776996;variety_store;GiFi;;94011;Bonneuil-sur-Marne;POINT (2.48730483427787 48.7661208776996)
2.52756340845635;48.7084456463178;supermarket;Intermarché;;94075;Villecresnes;POINT (2.52756340845635 48.7084456463178)
2.47409817791186;48.7396294893482;restaurant;Restaurant centre de formation;;94044;Limeil-Brévannes;POINT (2.47409817791186 48.7396294893482)
2.5550923850763;48.7947730016339;mall;Centre Commercial Pince-Vent;;94019;Chennevières-sur-Marne;POINT (2.5550923850763 48.7947730016339)
2.50804909796143;48.7717805036495;cafe;La Place;;94071;Sucy-en-Brie;POINT (2.50804909796143 48.7717805036495)
2.44297361734697;48.7741224982658;supermarket;Action;;94028;Créteil;POINT (2.44297361734697 48.7741224982658)
2.41996711413721;48.8043060734159;pharmacy;Espace Santé;;94002;Alfortville;POINT (2.41996711413721 48.8043060734159)
2.42064107604291;48.8022515953213;supermarket;Carrefour Contact;;94002;Alfortville;POINT (2.42064107604291 48.8022515953213)
2.5684522449652;48.7824800498272;fast_food;Pizza Hut;;94060;La Queue-en-Brie;POINT (2.5684522449652 48.7824800498272)
2.48480378332672;48.7674086924719;fast_food;McDonald's;;94011;Bonneuil-sur-Marne;POINT (2.48480378332672 48.7674086924719)
2.4630698164047;48.7909496191808;restaurant;Fou-Lo;16 Rue de Joly;94028;Créteil;POINT (2.4630698164047 48.7909496191808)
2.49051807939001;48.7696914147795;restaurant;Hippopotamus;;94011;Bonneuil-sur-Marne;POINT (2.49051807939001 48.7696914147795)
2.48885396607677;48.7640051931978;supermarket;Centre Commercial E. Leclerc;;94011;Bonneuil-sur-Marne;POINT (2.48885396607677 48.7640051931978)
2.50325863665736;48.7587070444383;restaurant;Courtepaille;;94004;Boissy-Saint-Léger;POINT (2.50325863665736 48.7587070444383)
2.48778886596185;48.7675693493328;supermarket;Aldi;;94011;Bonneuil-sur-Marne;POINT (2.48778886596185 48.7675693493328)
2.43595273274175;48.7851917701314;fast_food;McDonald's;;94028;Créteil;POINT (2.43595273274175 48.7851917701314)
2.5598103;48.7953484997431;supermarket;Le Grand Marché Bio;;94019;Chennevières-sur-Marne;POINT (2.5598103 48.7953484997431)
2.4570042;48.7801500997468;fast_food;Quick;;94028;Créteil;POINT (2.4570042 48.7801500997468)
2.4234508;48.7988898997422;cafe;Aux Quatre Points Cardinaux;;94002;Alfortville;POINT (2.4234508 48.7988898997422)
2.4737076;48.7523383997538;supermarket;Intermarché;15 Place Arthur Rimbaud;94044;Limeil-Brévannes;POINT (2.4737076 48.7523383997538)
2.4238928;48.7952101997431;cafe;Diyar;;94002;Alfortville;POINT (2.4238928 48.7952101997431)
2.55815045233806;48.7940494199018;fast_food;Burger King;;94019;Chennevières-sur-Marne;POINT (2.55815045233806 48.7940494199018)
2.4148368;48.8144330997384;fast_food;Domino's Pizza;26 Rue Charles de Gaulle;94002;Alfortville;POINT (2.4148368 48.8144330997384)
2.45743;48.7798898997469;restaurant;Indiana Café;;94028;Créteil;POINT (2.45743 48.7798898997469)
2.5601001;48.795616699743;variety_store;Action;;94019;Chennevières-sur-Marne;POINT (2.5601001 48.795616699743)
2.5381194;48.8031999997411;restaurant;L'Itlalien;;94019;Chennevières-sur-Marne;POINT (2.5381194 48.8031999997411)
2.5353399;48.7261444997602;cafe;Salon de Thé;;94075;Villecresnes;POINT (2.5353399 48.7261444997602)
2.4236802;48.7979217997424;restaurant;;;94002;Alfortville;POINT (2.4236802 48.7979217997424)
2.46292876114165;48.791818820483;restaurant;Le Village du bonheur;7 Rue d'Estienne d'Orves;94028;Créteil;POINT (2.46292876114165 48.791818820483)
2.49849025568717;48.774080464499;supermarket;Lidl;;94071;Sucy-en-Brie;POINT (2.49849025568717 48.774080464499)
2.5754056;48.7899263997444;bakery;Point Chaud;;94060;La Queue-en-Brie;POINT (2.5754056 48.7899263997444)
2.55257347784409;48.7945790596163;fast_food;McDonald's;;94055;Ormesson-sur-Marne;POINT (2.55257347784409 48.7945790596163)
2.48360225945482;48.7581210852518;supermarket;Lidl;;94011;Bonneuil-sur-Marne;POINT (2.48360225945482 48.7581210852518)
2.5202737;48.7699498997494;restaurant;Gourmet Royal;;94071;Sucy-en-Brie;POINT (2.5202737 48.7699498997494)
2.44478486126447;48.7931980488726;restaurant;Réstaurant universitaire;;94028;Créteil;POINT (2.44478486126447 48.7931980488726)
2.5327477;48.7202616997617;cafe;;;94075;Villecresnes;POINT (2.5327477 48.7202616997617)
2.4546496;48.8024372997413;pharmacy;Pharmacie des Bouleaux;;94028;Créteil;POINT (2.4546496 48.8024372997413)
2.5316097;48.7617328997514;cafe;Tabac du Plateau;;94071;Sucy-en-Brie;POINT (2.5316097 48.7617328997514)
2.4568148;48.7798091997469;fast_food;Burger King;101 Avenue du Général de Gaulle;94028;Créteil;POINT (2.4568148 48.7798091997469)
2.5748371;48.7897278997445;bakery;Point Chaud, Pain Chaud;;94060;La Queue-en-Brie;POINT (2.5748371 48.7897278997445)
2.4140452;48.8146700997383;restaurant;Sushi d'Alfortville;19 Rue Véron;94002;Alfortville;POINT (2.4140452 48.8146700997383)
2.44415161228162;48.7861049087063;cinema;Cinéma du Palais;;94028;Créteil;POINT (2.44415161228162 48.7861049087063)
2.5050411;48.7738825997484;restaurant;L'Open;;94071;Sucy-en-Brie;POINT (2.5050411 48.7738825997484)
2.4141052;48.8137231997385;restaurant;Chic and Cook;35 Rue Véron;94002;Alfortville;POINT (2.4141052 48.8137231997385)
2.4228382;48.8041076997409;cafe;Le Concorde;;94002;Alfortville;POINT (2.4228382 48.8041076997409)
2.54985678187263;48.7575495755183;bakery;Rêve Gourmand;;94071;Sucy-en-Brie;POINT (2.54985678187263 48.7575495755183)
2.42160165480896;48.8013290349269;restaurant;Belle Citronnelle;;94002;Alfortville;POINT (2.42160165480896 48.8013290349269)
2.4300141;48.7865940997453;cafe;;;94002;Alfortville;POINT (2.4300141 48.7865940997453)
2.4561426;48.7791573997471;sports;Adidas;;94028;Créteil;POINT (2.4561426 48.7791573997471)
2.4634513;48.7923836997438;cafe;Le Village;;94028;Créteil;POINT (2.4634513 48.7923836997438)
2.55800013568879;48.7593827399796;restaurant;Le Tartarin;;94071;Sucy-en-Brie;POINT (2.55800013568879 48.7593827399796)
2.4561111;48.7805555997468;restaurant;Ristorante Del Arte;110 Avenue du Général de Gaulle;94028;Créteil;POINT (2.4561111 48.7805555997468)
2.5774901;48.8057909997405;pharmacy;Pharmacie de l'Espace Paul Valéry;;94059;Le Plessis-Trévise;POINT (2.5774901 48.8057909997405)
2.4544957;48.8023482997414;bakery;Les Délices des Bordières;;94028;Créteil;POINT (2.4544957 48.8023482997414)
2.58605130312154;48.8055323965919;supermarket;Auchan Supermarché;30 Avenue Chéret;94059;Le Plessis-Trévise;POINT (2.58605130312154 48.8055323965919)
2.56733646791952;48.8123398316353;restaurant;L'Osteria du Plessis;;94059;Le Plessis-Trévise;POINT (2.56733646791952 48.8123398316353)
2.4252098;48.799520499742;pharmacy;Pharmacie Émile Zola;;94002;Alfortville;POINT (2.4252098 48.799520499742)
2.4618696;48.7884202997448;restaurant;Délices du Vietnam;;94028;Créteil;POINT (2.4618696 48.7884202997448)
2.5050209;48.7519446997538;fast_food;RDV ici;;94004;Boissy-Saint-Léger;POINT (2.5050209 48.7519446997538)
2.4663889;48.7772582997476;cinema;La Lucarne;100 Rue Juliette Savar;94028;Créteil;POINT (2.4663889 48.7772582997476)
2.4862558;48.7738203997484;bakery;Maison Yasin;;94011;Bonneuil-sur-Marne;POINT (2.4862558 48.7738203997484)
2.5591265;48.7954682997431;restaurant;;;94019;Chennevières-sur-Marne;POINT (2.5591265 48.7954682997431)
2.4494617;48.7896616997445;pharmacy;Pharmacie de la Levrière;;94028;Créteil;POINT (2.4494617 48.7896616997445)
2.4918808;48.7654688997505;fast_food;Le Comptoir;;94011;Bonneuil-sur-Marne;POINT (2.4918808 48.7654688997505)
2.4918088703297;48.765719522192;mall;Bonneuil Shopping Parc;;94011;Bonneuil-sur-Marne;POINT (2.4918088703297 48.765719522192)
2.531658;48.7819420997464;restaurant;Les Jardins de Majorelle;;94055;Ormesson-sur-Marne;POINT (2.531658 48.7819420997464)
2.49258751055294;48.7651244024084;sports;Intersport;;94011;Bonneuil-sur-Marne;POINT (2.49258751055294 48.7651244024084)
2.4250266;48.795889599743;bakery;;;94002;Alfortville;POINT (2.4250266 48.795889599743)
2.5546787;48.7936190997435;pharmacy;;;94055;Ormesson-sur-Marne;POINT (2.5546787 48.7936190997435)
2.4134664;48.8144435997383;fast_food;Frango assado;14 Rue Charles de Gaulle;94002;Alfortville;POINT (2.4134664 48.8144435997383)
2.54165713563287;48.7995352520514;restaurant;Le Dua;;94019;Chennevières-sur-Marne;POINT (2.54165713563287 48.7995352520514)
2.4603335;48.7939036997434;restaurant;Brasserie Le Paris;7 Rue de Paris;94028;Créteil;POINT (2.4603335 48.7939036997434)
2.50629261789129;48.7480397450556;bakery;;;94004;Boissy-Saint-Léger;POINT (2.50629261789129 48.7480397450556)
2.4144968;48.8089714997397;restaurant;Le Petit Paradis;119 Rue Véron;94002;Alfortville;POINT (2.4144968 48.8089714997397)
2.4476407;48.7765520997478;fast_food;;;94028;Créteil;POINT (2.4476407 48.7765520997478)
2.4256044;48.7893425997446;internet_cafe;Syma;Rue Étienne Dolet;94002;Alfortville;POINT (2.4256044 48.7893425997446)
2.4194638;48.8059342997404;books;L'établi;;94002;Alfortville;POINT (2.4194638 48.8059342997404)
2.42224857078529;48.8004161600661;pharmacy;Pharmacie de la gare;;94002;Alfortville;POINT (2.42224857078529 48.8004161600661)
2.5845779;48.8056783997405;restaurant;Tokyo Sushi;3 Place de Verdun;94059;Le Plessis-Trévise;POINT (2.5845779 48.8056783997405)
2.529852;48.7869857997452;pharmacy;Népenthès;;94019;Chennevières-sur-Marne;POINT (2.529852 48.7869857997452)
2.4554692;48.779434799747;pharmacy;Pharmacie Soumet Cap Santé 2;;94028;Créteil;POINT (2.4554692 48.779434799747)
2.5350304;48.7258265997603;bakery;Boulangerie de la gare;;94075;Villecresnes;POINT (2.5350304 48.7258265997603)
2.5121513;48.7493672997545;fast_food;;;94004;Boissy-Saint-Léger;POINT (2.5121513 48.7493672997545)
2.45938903749741;48.7846479157437;fast_food;McDonald's;;94028;Créteil;POINT (2.45938903749741 48.7846479157437)
2.4626503;48.7929961997437;fast_food;Grill Istanbul;;94028;Créteil;POINT (2.4626503 48.7929961997437)
2.4260125;48.8017040997415;bakery;La Boulang' de la Gare;;94002;Alfortville;POINT (2.4260125 48.8017040997415)
2.5080243;48.7698123997494;fast_food;La Pizzetta;;94071;Sucy-en-Brie;POINT (2.5080243 48.7698123997494)
2.4141616;48.8100078997394;pharmacy;Pharmacie Roustan;106 Rue Véron;94002;Alfortville;POINT (2.4141616 48.8100078997394)
2.5304276;48.7871647997451;supermarket;Franprix;;94019;Chennevières-sur-Marne;POINT (2.5304276 48.7871647997451)
2.5695227232358;48.7826632834789;restaurant;La Criée;;94060;La Queue-en-Brie;POINT (2.5695227232358 48.7826632834789)
2.5723903;48.7921394997439;pharmacy;Pharmacie des Bordes;2 Avenue des Bordes;94060;La Queue-en-Brie;POINT (2.5723903 48.7921394997439)
2.5346987;48.7903908997443;pharmacy;Pharmacie du Château;;94055;Ormesson-sur-Marne;POINT (2.5346987 48.7903908997443)
2.44527919059557;48.7909453288969;supermarket;G20;287 Avenue du Général de Gaulle;94028;Créteil;POINT (2.44527919059557 48.7909453288969)
2.4188718;48.8045079997408;supermarket;Point Nature;28 Rue Victor Hugo;94002;Alfortville;POINT (2.4188718 48.8045079997408)
2.5365392;48.7278864997598;restaurant;Les Merveilles de Chine;;94075;Villecresnes;POINT (2.5365392 48.7278864997598)
2.5150222;48.7694703997495;restaurant;Wonder Eat;;94071;Sucy-en-Brie;POINT (2.5150222 48.7694703997495)
2.5059512;48.7528494997536;fast_food;Chez Bulut Dédé;;94004;Boissy-Saint-Léger;POINT (2.5059512 48.7528494997536)
2.52845610005599;48.7280310998931;fast_food;McDonald's;;94075;Villecresnes;POINT (2.52845610005599 48.7280310998931)
2.4213908;48.8017853997415;restaurant;Diana Rôtisserie;;94002;Alfortville;POINT (2.4213908 48.8017853997415)
2.4564412;48.8054004997406;fast_food;;;94028;Créteil;POINT (2.4564412 48.8054004997406)
2.5403993;48.8018635997415;bar;Le Pavillon Bleu;;94019;Chennevières-sur-Marne;POINT (2.5403993 48.8018635997415)
2.4177698;48.8085334997398;books;Librairie L'Etablie;;94002;Alfortville;POINT (2.4177698 48.8085334997398)
2.46207176203654;48.7928381890748;supermarket;Auchan;;94028;Créteil;POINT (2.46207176203654 48.7928381890748)
2.5420871;48.8005473997418;bakery;;;94019;Chennevières-sur-Marne;POINT (2.5420871 48.8005473997418)
2.4917259711362;48.7728390167743;supermarket;Luso Market;;94011;Bonneuil-sur-Marne;POINT (2.4917259711362 48.7728390167743)
2.4558594;48.7936884997435;pharmacy;Pharmacie Champeval;;94028;Créteil;POINT (2.4558594 48.7936884997435)
2.5221019;48.7704868997493;restaurant;Osaka;;94071;Sucy-en-Brie;POINT (2.5221019 48.7704868997493)
2.4191795;48.8045980997408;fast_food;Courant d'Air;41 Rue Victor Hugo;94002;Alfortville;POINT (2.4191795 48.8045980997408)
2.57789618655029;48.7798643853471;restaurant;L'Auberge du Petit Caporal;;94060;La Queue-en-Brie;POINT (2.57789618655029 48.7798643853471)
2.5019663;48.7541225997533;cinema;Le Forum;Place du Forum;94004;Boissy-Saint-Léger;POINT (2.5019663 48.7541225997533)
2.5232077;48.7532106997535;cafe;Bar Brasserie Le Clary Hotel;;94004;Boissy-Saint-Léger;POINT (2.5232077 48.7532106997535)
2.506205;48.7529189997536;fast_food;Chicken Spot;;94004;Boissy-Saint-Léger;POINT (2.506205 48.7529189997536)
2.44055546462369;48.7744243564525;supermarket;Istambul;;94028;Créteil;POINT (2.44055546462369 48.7744243564525)
2.46812859243189;48.799333544678;restaurant;Plaisir du Portugal;;94028;Créteil;POINT (2.46812859243189 48.799333544678)
2.47528007368224;48.7651221013974;restaurant;Palais de Bonneuil;;94011;Bonneuil-sur-Marne;POINT (2.47528007368224 48.7651221013974)
2.4196419;48.8046706997408;cafe;Tabac de la Mairie;;94002;Alfortville;POINT (2.4196419 48.8046706997408)
2.5357104;48.7920712997439;bakery;;13 Rue du Belvédère;94019;Chennevières-sur-Marne;POINT (2.5357104 48.7920712997439)
2.4191777;48.8050466997407;bakery;Michel Fabre;;94002;Alfortville;POINT (2.4191777 48.8050466997407)
2.5107472;48.7508520997541;fast_food;Presto Pizza;;94004;Boissy-Saint-Léger;POINT (2.5107472 48.7508520997541)
2.5732567;48.7248475997606;bakery;Le petit pain;;94070;Santeny;POINT (2.5732567 48.7248475997606)
2.4140915;48.811623899739;restaurant;Pastel De Feira;74 Rue Véron;94002;Alfortville;POINT (2.4140915 48.811623899739)
2.5667059;48.8104672997393;pharmacy;Pharmacie Marbeau;40 Avenue du Général Leclerc;94059;Le Plessis-Trévise;POINT (2.5667059 48.8104672997393)
2.58181938085767;48.8064485323221;pharmacy;Pharmacie Torterat;62 bis Avenue du Général de Gaulle;94059;Le Plessis-Trévise;POINT (2.58181938085767 48.8064485323221)
2.5295255;48.7279032997598;fast_food;Pizza Liva;;94075;Villecresnes;POINT (2.5295255 48.7279032997598)
2.510502;48.7746364997482;restaurant;Le Coq Portugais;;94071;Sucy-en-Brie;POINT (2.510502 48.7746364997482)
2.5121404;48.7495639997544;books;Au Son de la Presse;;94004;Boissy-Saint-Léger;POINT (2.5121404 48.7495639997544)
2.521479;48.7697443997494;restaurant;Sohana;;94071;Sucy-en-Brie;POINT (2.521479 48.7697443997494)
2.53675757301091;48.7270342914963;supermarket;Carrefour Contact;;94075;Villecresnes;POINT (2.53675757301091 48.7270342914963)
2.419208;48.8053844997406;bakery;Lamet;;94002;Alfortville;POINT (2.419208 48.8053844997406)
2.4569085;48.7751259997481;restaurant;Dewran;;94028;Créteil;POINT (2.4569085 48.7751259997481)
2.4276126;48.7909092997442;pharmacy;Pharmacie du Grand Ensemble;Rue de Londres;94002;Alfortville;POINT (2.4276126 48.7909092997442)
2.5786336;48.7845346997458;bakery;Boulangerie Pâtisserie Guérin A.A;38 Rue Jean Jaurès;94060;La Queue-en-Brie;POINT (2.5786336 48.7845346997458)
2.5200714;48.7699818997494;pharmacy;Pharmacie du Moutier;17-21 Rue du Moutier;94071;Sucy-en-Brie;POINT (2.5200714 48.7699818997494)
2.5197475;48.7705681997492;pharmacy;Pharmacie du Centre;;94071;Sucy-en-Brie;POINT (2.5197475 48.7705681997492)
2.5747423;48.7901197997444;fast_food;La Goulette;;94060;La Queue-en-Brie;POINT (2.5747423 48.7901197997444)
2.572811;48.8105287997393;bakery;La pétrie;2 Avenue Jean Charcot;94059;Le Plessis-Trévise;POINT (2.572811 48.8105287997393)
2.4253635;48.7959115997429;pharmacy;Pharmacie du Marché;;94002;Alfortville;POINT (2.4253635 48.7959115997429)
2.419038;48.8080739997399;bar;Le Vaillant;;94002;Alfortville;POINT (2.419038 48.8080739997399)
2.44094935691275;48.7748396831885;restaurant;Buffalo Grill;;94028;Créteil;POINT (2.44094935691275 48.7748396831885)
2.4875334;48.7647296997507;pharmacy;Pharmacie Danan;;94011;Bonneuil-sur-Marne;POINT (2.4875334 48.7647296997507)
2.4619963;48.7932782997436;restaurant;Traiteur Papan 巴攀美店食;;94028;Créteil;POINT (2.4619963 48.7932782997436)
2.45596476353566;48.7782119536265;supermarket;Carrefour;;94028;Créteil;POINT (2.45596476353566 48.7782119536265)
2.49002815219599;48.7690838144236;restaurant;Léon de Bruxelles;;94011;Bonneuil-sur-Marne;POINT (2.49002815219599 48.7690838144236)
2.53504671021606;48.8052634009015;fast_food;McDonald's;;94019;Chennevières-sur-Marne;POINT (2.53504671021606 48.8052634009015)
2.4562338;48.779519699747;restaurant;Flunch;;94028;Créteil;POINT (2.4562338 48.779519699747)
2.5532289;48.7369693997576;mall;;;94048;Marolles-en-Brie;POINT (2.5532289 48.7369693997576)
2.5324568;48.7669099997501;restaurant;Le Bistrot du Fort;;94071;Sucy-en-Brie;POINT (2.5324568 48.7669099997501)
2.5057401;48.7525038997537;cafe;Warner's;;94004;Boissy-Saint-Léger;POINT (2.5057401 48.7525038997537)
2.4545351;48.7784674997473;restaurant;Le Salvador;5 Place Salvador Allendé;94028;Créteil;POINT (2.4545351 48.7784674997473)
2.5215427;48.7702415997493;restaurant;Churrasqueira Marito's;;94071;Sucy-en-Brie;POINT (2.5215427 48.7702415997493)
2.5150953;48.775626399748;bakery;Aux Trois Petits Mitrons;;94071;Sucy-en-Brie;POINT (2.5150953 48.775626399748)
2.5346369;48.7254217997604;restaurant;;;94075;Villecresnes;POINT (2.5346369 48.7254217997604)
2.4559292;48.7934722997436;pharmacy;Pharmacie Nguyen;;94028;Créteil;POINT (2.4559292 48.7934722997436)
2.473056;48.7624490997512;sports;Royal Escrime;18 Rue Eugène Freyssinet;94028;Créteil;POINT (2.473056 48.7624490997512)
2.4144294;48.8146317997383;supermarket;Coccinelle Supermarché;15 bis Rue Charles de Gaulle;94002;Alfortville;POINT (2.4144294 48.8146317997383)
2.5344156;48.7221933997612;pharmacy;Pharmacie du Marché;;94075;Villecresnes;POINT (2.5344156 48.7221933997612)
2.5334972;48.7225489997611;supermarket;Carrefour City;51 Rue du Lieutenant Dagorno;94075;Villecresnes;POINT (2.5334972 48.7225489997611)
2.5743526;48.8092810997396;restaurant;Plessis Sushi;3 Avenue Thérèse;94059;Le Plessis-Trévise;POINT (2.5743526 48.8092810997396)
2.4259025;48.799776599742;restaurant;Le Camélia;;94002;Alfortville;POINT (2.4259025 48.799776599742)
2.4890056;48.7401860997568;bakery;La Gourmandise 2;22 Avenue Descartes;94044;Limeil-Brévannes;POINT (2.4890056 48.7401860997568)
2.461868;48.7884159997448;restaurant;Loulou Pizza;75 Rue de Mesly;94028;Créteil;POINT (2.461868 48.7884159997448)
2.5550664;48.7952638997431;supermarket;;;94019;Chennevières-sur-Marne;POINT (2.5550664 48.7952638997431)
2.4571196;48.7971425997426;restaurant;Le Margy's;;94028;Créteil;POINT (2.4571196 48.7971425997426)
2.4108916;48.8160427997379;restaurant;Huatian Restaurant;;94002;Alfortville;POINT (2.4108916 48.8160427997379)
2.444654;48.7932518997436;restaurant;Restaurant universitaire L'Agora;;94028;Créteil;POINT (2.444654 48.7932518997436)
2.5785237;48.7850984997456;bar;Le Tabac des Sports;29 Rue Jean Jaurès;94060;La Queue-en-Brie;POINT (2.5785237 48.7850984997456)
2.5116501;48.7444251997557;restaurant;La Montagne;;94044;Limeil-Brévannes;POINT (2.5116501 48.7444251997557)
2.4144059;48.8100070997394;bakery;La Tradi d'or;105 Rue Véron;94002;Alfortville;POINT (2.4144059 48.8100070997394)
2.540119;48.7855411997455;cafe;Tabac de la Mairie;;94055;Ormesson-sur-Marne;POINT (2.540119 48.7855411997455)
2.540349;48.8015958997415;fast_food;Manhattan;;94019;Chennevières-sur-Marne;POINT (2.540349 48.8015958997415)
2.5330167;48.7210049997615;pharmacy;Pharmacie de l'Église;;94075;Villecresnes;POINT (2.5330167 48.7210049997615)
2.5543389;48.7936718997435;supermarket;Carrefour;;94055;Ormesson-sur-Marne;POINT (2.5543389 48.7936718997435)
2.4442357;48.7919319997439;pharmacy;Pharmacie Benais;;94028;Créteil;POINT (2.4442357 48.7919319997439)
2.573227;48.7159119997628;fast_food;Domino's Pizza;;94070;Santeny;POINT (2.573227 48.7159119997628)
2.5218636;48.7814927997465;cafe;Le Week End;;94055;Ormesson-sur-Marne;POINT (2.5218636 48.7814927997465)
2.5267053;48.7747019997482;bakery;;;94071;Sucy-en-Brie;POINT (2.5267053 48.7747019997482)
2.4498466;48.8012615997416;bakery;Bernard Lacrée;114 Avenue du Maréchal de Lattre de Tassigny;94028;Créteil;POINT (2.4498466 48.8012615997416)
2.4261104;48.8016431997415;supermarket;Coccinelle Express;;94002;Alfortville;POINT (2.4261104 48.8016431997415)
2.5095955;48.7719513997489;restaurant;La Téranga;;94071;Sucy-en-Brie;POINT (2.5095955 48.7719513997489)
2.460642;48.771502499749;pharmacy;Pharmacie de la Source;;94028;Créteil;POINT (2.460642 48.771502499749)
2.5126866;48.7490755997546;fast_food;Macadam;;94004;Boissy-Saint-Léger;POINT (2.5126866 48.7490755997546)
2.419239;48.8062039997404;restaurant;L'Eden;;94002;Alfortville;POINT (2.419239 48.8062039997404)
2.5219588;48.7531188997536;bakery;Le Fournil de Boissy;;94004;Boissy-Saint-Léger;POINT (2.5219588 48.7531188997536)
2.4250443;48.7963403997428;bakery;La Rainha;;94002;Alfortville;POINT (2.4250443 48.7963403997428)
2.4563386;48.7936171997435;restaurant;Tabac du Château;;94028;Créteil;POINT (2.4563386 48.7936171997435)
2.5730325;48.7803536997468;restaurant;Côté Zen;;94060;La Queue-en-Brie;POINT (2.5730325 48.7803536997468)
2.5559038;48.7952349997431;cinema;Ciné Pince-Vent;;94019;Chennevières-sur-Marne;POINT (2.5559038 48.7952349997431)
2.4597289;48.7949668997432;bar;LS Café;;94028;Créteil;POINT (2.4597289 48.7949668997432)
2.5114126;48.7747761997482;cafe;Le Pavillon;;94071;Sucy-en-Brie;POINT (2.5114126 48.7747761997482)
2.4812646;48.7749785997481;restaurant;La Crêpe sur Mesure;;94011;Bonneuil-sur-Marne;POINT (2.4812646 48.7749785997481)
2.4634349;48.7905340997443;supermarket;Wanan Supermarché  华南超市;49 Avenue Pierre Brossolette;94028;Créteil;POINT (2.4634349 48.7905340997443)
2.4168983;48.8102234997394;restaurant;Chicken Corner;92 Rue Paul Vaillant Couturier;94002;Alfortville;POINT (2.4168983 48.8102234997394)
2.4242672;48.7989083997422;restaurant;;;94002;Alfortville;POINT (2.4242672 48.7989083997422)
2.5303148;48.7959856997429;fast_food;Pizza Milano;;94019;Chennevières-sur-Marne;POINT (2.5303148 48.7959856997429)
2.5742457;48.8089719997397;pharmacy;Pharmacie GRANDCOURT et CHAUPAL;19 Avenue Ardouin;94059;Le Plessis-Trévise;POINT (2.5742457 48.8089719997397)
2.4448016;48.791652399744;mall;;;94028;Créteil;POINT (2.4448016 48.791652399744)
2.5530063;48.759572899752;bar;L'Entre-Deux;;94071;Sucy-en-Brie;POINT (2.5530063 48.759572899752)
2.4216722;48.8016662997415;restaurant;House Pizza;;94002;Alfortville;POINT (2.4216722 48.8016662997415)
2.5203571;48.7697105997494;bakery;;;94071;Sucy-en-Brie;POINT (2.5203571 48.7697105997494)
2.4672245;48.7670334997501;restaurant;;;94028;Créteil;POINT (2.4672245 48.7670334997501)
2.4808396;48.7499491997543;pharmacy;Pharmacie Degrandi;;94044;Limeil-Brévannes;POINT (2.4808396 48.7499491997543)
2.5718228;48.8060326997404;restaurant;Les oliviers;;94059;Le Plessis-Trévise;POINT (2.5718228 48.8060326997404)
2.572709;48.8043128997409;restaurant;Ye Suizhuang;2 Avenue Clément Ader;94059;Le Plessis-Trévise;POINT (2.572709 48.8043128997409)
2.4256657;48.7899245997444;bakery;Boulanger Pâtissier;;94002;Alfortville;POINT (2.4256657 48.7899245997444)
2.5335395;48.7671712997501;fast_food;3B burgers bio;;94071;Sucy-en-Brie;POINT (2.5335395 48.7671712997501)
2.4150443;48.8144596997384;fast_food;O'malo;28 Rue Charles de Gaulle;94002;Alfortville;POINT (2.4150443 48.8144596997384)
2.5266738;48.7561848997528;fast_food;Domino's;;94071;Sucy-en-Brie;POINT (2.5266738 48.7561848997528)
2.4639268;48.7944481997433;restaurant;;;94028;Créteil;POINT (2.4639268 48.7944481997433)
2.5443724;48.702837899766;pharmacy;;;94047;Mandres-les-Roses;POINT (2.5443724 48.702837899766)
2.4453401;48.7866529997452;pharmacy;SELARL Pharmacie du Palais;;94028;Créteil;POINT (2.4453401 48.7866529997452)
2.4247306;48.7963468997428;restaurant;Carnot;;94002;Alfortville;POINT (2.4247306 48.7963468997428)
2.4142363;48.8101123997394;bar;Le Fortville;106 Rue Véron;94002;Alfortville;POINT (2.4142363 48.8101123997394)
2.5117836;48.7496958997544;fast_food;Sakura;;94004;Boissy-Saint-Léger;POINT (2.5117836 48.7496958997544)
2.4556205;48.7698444997494;bakery;;;94028;Créteil;POINT (2.4556205 48.7698444997494)
2.5715961;48.8101906997394;pharmacy;Pharmacie du MARCHE;3 Allée des Ambalais;94059;Le Plessis-Trévise;POINT (2.5715961 48.8101906997394)
2.5310035;48.7822420997463;bakery;;;94055;Ormesson-sur-Marne;POINT (2.5310035 48.7822420997463)
2.4168087;48.8104416997393;supermarket;Franprix;90 Rue Paul Vaillant Couturier;94002;Alfortville;POINT (2.4168087 48.8104416997393)
2.4191358;48.8051158997407;fast_food;Le Pékin d'Alfortville;;94002;Alfortville;POINT (2.4191358 48.8051158997407)
2.5536671;48.7370082997576;supermarket;Carrefour City;;94048;Marolles-en-Brie;POINT (2.5536671 48.7370082997576)
2.5261118;48.7745151997483;pharmacy;;;94071;Sucy-en-Brie;POINT (2.5261118 48.7745151997483)
2.4139587;48.8132078997387;restaurant;Restaurant Oriental Darkoum;40 Rue Véron;94002;Alfortville;POINT (2.4139587 48.8132078997387)
2.4827285;48.7503907997542;cafe;L'époque;;94044;Limeil-Brévannes;POINT (2.4827285 48.7503907997542)
2.5304788;48.7968160997427;cafe;Le Gémeaux;;94019;Chennevières-sur-Marne;POINT (2.5304788 48.7968160997427)
2.4170207;48.8103461997394;restaurant;Restaurant Cappadoce;89 Rue Paul Vaillant Couturier;94002;Alfortville;POINT (2.4170207 48.8103461997394)
2.5259968;48.7747476997482;supermarket;G20;;94071;Sucy-en-Brie;POINT (2.5259968 48.7747476997482)
2.4765334;48.7639673997509;restaurant;Memphis Coffee;;94011;Bonneuil-sur-Marne;POINT (2.4765334 48.7639673997509)
2.5583838;48.7922964997438;books;Cultura;;94060;La Queue-en-Brie;POINT (2.5583838 48.7922964997438)
2.5542708;48.7368610997576;bakery;;;94048;Marolles-en-Brie;POINT (2.5542708 48.7368610997576)
2.477248;48.7629581997511;supermarket;Moldova;;94011;Bonneuil-sur-Marne;POINT (2.477248 48.7629581997511)
2.4603938;48.771536699749;bakery;;;94028;Créteil;POINT (2.4603938 48.771536699749)
2.4649194;48.7908459997442;restaurant;Le Maloney (Café le Baron);71 Rue du Général Leclerc;94028;Créteil;POINT (2.4649194 48.7908459997442)
2.4566735;48.7969801997427;supermarket;Carrefour City;33 Avenue du Maréchal de Lattre de Tassigny;94028;Créteil;POINT (2.4566735 48.7969801997427)
2.4589447;48.8019389997414;pharmacy;Pharmacie Laferrière;;94028;Créteil;POINT (2.4589447 48.8019389997414)
2.4632667;48.7962796997429;restaurant;Le Marrakchi;;94028;Créteil;POINT (2.4632667 48.7962796997429)
2.5738623;48.8087937997398;bakery;Gabriel;38 Avenue Ardouin;94059;Le Plessis-Trévise;POINT (2.5738623 48.8087937997398)
2.423549;48.7987465997422;cafe;À l'Arrêt de Bus;;94002;Alfortville;POINT (2.423549 48.7987465997422)
2.5704874;48.811708599739;pharmacy;Pharmacie GO;8 Avenue Ardouin;94059;Le Plessis-Trévise;POINT (2.5704874 48.811708599739)
2.4194303;48.8046647997408;fast_food;Eurosnack;;94002;Alfortville;POINT (2.4194303 48.8046647997408)
2.4154358;48.8146532997383;pharmacy;Pharmacie PARO;15 Rue Paul Vaillant Couturier;94002;Alfortville;POINT (2.4154358 48.8146532997383)
2.4575591;48.7729485997486;supermarket;Franprix;;94028;Créteil;POINT (2.4575591 48.7729485997486)
2.4206051;48.8032931997411;supermarket;Intermarché;;94002;Alfortville;POINT (2.4206051 48.8032931997411)
2.5086835;48.771748599749;bakery;Gaule;;94071;Sucy-en-Brie;POINT (2.5086835 48.771748599749)
2.518258;48.7724225997488;pharmacy;Pharmacie du Clos de Pacy;;94071;Sucy-en-Brie;POINT (2.518258 48.7724225997488)
2.573037;48.8104350997393;restaurant;Hotimes;11 Avenue du Général de Gaulle;94059;Le Plessis-Trévise;POINT (2.573037 48.8104350997393)
2.5223246;48.7702283997493;restaurant;Eden Crepe;;94071;Sucy-en-Brie;POINT (2.5223246 48.7702283997493)
2.5099217;48.7469700997551;cafe;Le Couscous;;94004;Boissy-Saint-Léger;POINT (2.5099217 48.7469700997551)
2.5089182;48.7717514997489;fast_food;Capri Sucy;;94071;Sucy-en-Brie;POINT (2.5089182 48.7717514997489)
2.4148249;48.8048420997407;pharmacy;Pharmacie Charles;;94002;Alfortville;POINT (2.4148249 48.8048420997407)
2.4563522;48.7784909997473;bakery;Brioche Dorée;Avenue du Général De Gaulle;94028;Créteil;POINT (2.4563522 48.7784909997473)
2.4872651;48.7520890997538;pharmacy;Pharmacie Centre Limeil;;94044;Limeil-Brévannes;POINT (2.4872651 48.7520890997538)
2.575666;48.7903408997443;fast_food;Napoli Pizza;;94060;La Queue-en-Brie;POINT (2.575666 48.7903408997443)
2.5301747;48.7960594997429;fast_food;Pizza Food;;94019;Chennevières-sur-Marne;POINT (2.5301747 48.7960594997429)
2.539429;48.7872421997451;bar;Muguet Bar;;94055;Ormesson-sur-Marne;POINT (2.539429 48.7872421997451)
2.5383591;48.7895891997445;restaurant;Passion Latina;;94055;Ormesson-sur-Marne;POINT (2.5383591 48.7895891997445)
2.5198422;48.7703478997493;books;L'Oiseau Moqueur;;94071;Sucy-en-Brie;POINT (2.5198422 48.7703478997493)
2.57623682774787;48.7801089048327;restaurant;Pedro Poulet;;94060;La Queue-en-Brie;POINT (2.57623682774787 48.7801089048327)
2.51142021112376;48.7462372840185;supermarket;ALDI;;94004;Boissy-Saint-Léger;POINT (2.51142021112376 48.7462372840185)
2.57327360115995;48.7143576305328;supermarket;Lidl;;94070;Santeny;POINT (2.57327360115995 48.7143576305328)
2.45778780533043;48.7798265225077;mall;Centre Commercial Créteil Soleil;Avenue de la France Libre;94028;Créteil;POINT (2.45778780533043 48.7798265225077)
2.56589110607293;48.7193582260547;restaurant;Le Classic;;94070;Santeny;POINT (2.56589110607293 48.7193582260547)
2.50078204041084;48.7598168583925;restaurant;La Villa du Prince;;94004;Boissy-Saint-Léger;POINT (2.50078204041084 48.7598168583925)
2.55206909411502;48.7765965133376;supermarket;Intermarché Super;1-3 Rue Sadi Carnot;94053;Noiseau;POINT (2.55206909411502 48.7765965133376)
2.54910534481311;48.7966144384671;restaurant;Le Rouergue;;94055;Ormesson-sur-Marne;POINT (2.54910534481311 48.7966144384671)
2.41896784298087;48.8068337583069;supermarket;Monoprix;;94002;Alfortville;POINT (2.41896784298087 48.8068337583069)
2.53889531343145;48.7279203601233;restaurant;;;94048;Marolles-en-Brie;POINT (2.53889531343145 48.7279203601233)
2.4756335748893;48.7652773770422;restaurant;;;94011;Bonneuil-sur-Marne;POINT (2.4756335748893 48.7652773770422)
2.55714671062174;48.6955133159228;supermarket;Carrefour Contact Périgny;;94056;Périgny;POINT (2.55714671062174 48.6955133159228)
2.54863297169059;48.7963939928473;restaurant;;;94055;Ormesson-sur-Marne;POINT (2.54863297169059 48.7963939928473)
2.4889095199407;48.7653780612763;mall;;;94011;Bonneuil-sur-Marne;POINT (2.4889095199407 48.7653780612763)
2.42008658737903;48.8036230344901;restaurant;Papaye;;94002;Alfortville;POINT (2.42008658737903 48.8036230344901)
2.55161551670062;48.7941346430531;restaurant;Courtepaille;;94055;Ormesson-sur-Marne;POINT (2.55161551670062 48.7941346430531)
2.55288936566498;48.7934775670118;restaurant;Roosters;;94055;Ormesson-sur-Marne;POINT (2.55288936566498 48.7934775670118)
2.50356510559215;48.7437420389201;supermarket;Diagonal;;94044;Limeil-Brévannes;POINT (2.50356510559215 48.7437420389201)
2.47730243598337;48.7639201281462;supermarket;E. Leclerc Drive;;94011;Bonneuil-sur-Marne;POINT (2.47730243598337 48.7639201281462)
2.52644038392786;48.7292612531282;restaurant;;;94075;Villecresnes;POINT (2.52644038392786 48.7292612531282)
2.53477701316513;48.805866608646;supermarket;Lidl;;94019;Chennevières-sur-Marne;POINT (2.53477701316513 48.805866608646)
2.52438262245677;48.7963222090676;restaurant;L'Ecu de France;;94019;Chennevières-sur-Marne;POINT (2.52438262245677 48.7963222090676)
2.48923636669853;48.7508707861998;supermarket;Auchan Supermarché;;94044;Limeil-Brévannes;POINT (2.48923636669853 48.7508707861998)
2.471109957567;48.7784167487711;supermarket;Leader Price;;94028;Créteil;POINT (2.471109957567 48.7784167487711)
2.5190103004595;48.7517886316772;restaurant;Best Thai Kitchen;28 Rue de Sucy;94004;Boissy-Saint-Léger;POINT (2.5190103004595 48.7517886316772)
2.4550959096068;48.782808259914;fast_food;Quick;6 Avenue de la Brèche;94028;Créteil;POINT (2.4550959096068 48.782808259914)
2.5347651754824;48.7903293197537;restaurant;Shuriken Sushi;96 Avenue du Général de Gaulle;94055;Ormesson-sur-Marne;POINT (2.5347651754824 48.7903293197537)
2.45598229445023;48.7798446619797;mall;Centre Commercial Créteil Soleil;Avenue de la France Libre;94028;Créteil;POINT (2.45598229445023 48.7798446619797)
2.41451290974187;48.8100896676392;bakery;;;94002;Alfortville;POINT (2.41451290974187 48.8100896676392)
2.4628797;48.7925915997438;pharmacy;Pharmacie Bonnardel;;94028;Créteil;POINT (2.4628797 48.7925915997438)
2.5494182;48.7924868997438;bakery;La Gourmandise;;94055;Ormesson-sur-Marne;POINT (2.5494182 48.7924868997438)
2.5754285;48.8092059997397;fast_food;Restaurant Istanbul;18B Avenue du Général de Gaulle;94059;Le Plessis-Trévise;POINT (2.5754285 48.8092059997397)
2.4179915;48.8004395997418;restaurant;Pizza Blanqui;71 Quai Blanqui;94002;Alfortville;POINT (2.4179915 48.8004395997418)
2.5737581;48.7804941997468;pharmacy;Pharmacie des Charmes;;94060;La Queue-en-Brie;POINT (2.5737581 48.7804941997468)
2.5086044;48.7705804997492;fast_food;Sandwich Time;;94071;Sucy-en-Brie;POINT (2.5086044 48.7705804997492)
2.5540727;48.7370229997575;pharmacy;Pharmacie de MAROLLES GROSBOIS;;94048;Marolles-en-Brie;POINT (2.5540727 48.7370229997575)
2.5267196;48.7626460997512;bakery;;;94071;Sucy-en-Brie;POINT (2.5267196 48.7626460997512)
2.5129703;48.7482830997548;restaurant;Le Palais d'Agadir;;94004;Boissy-Saint-Léger;POINT (2.5129703 48.7482830997548)
2.5086527;48.7699900997494;restaurant;Le Petit Val;;94071;Sucy-en-Brie;POINT (2.5086527 48.7699900997494)
2.4687119;48.7684997997497;bakery;Le Moulin à Pain;;94028;Créteil;POINT (2.4687119 48.7684997997497)
2.5414058;48.8009766997417;fast_food;Lé Kebab;;94019;Chennevières-sur-Marne;POINT (2.5414058 48.8009766997417)
2.4937821;48.76747929975;fast_food;Class'croute;2 Avenue des Marronniers;94011;Bonneuil-sur-Marne;POINT (2.4937821 48.76747929975)
2.4193521;48.8070872997402;pharmacy;Pharmacie LAY;;94002;Alfortville;POINT (2.4193521 48.8070872997402)
2.4587398;48.7953481997431;restaurant;Salsa Trattoria;;94028;Créteil;POINT (2.4587398 48.7953481997431)
2.4486593;48.7966573997428;mall;Centre Commercial Échat;;94028;Créteil;POINT (2.4486593 48.7966573997428)
2.5117171;48.7775220997475;restaurant;Sen Sushi;;94071;Sucy-en-Brie;POINT (2.5117171 48.7775220997475)
2.5299541;48.7943369997433;fast_food;Story Pizza;;94019;Chennevières-sur-Marne;POINT (2.5299541 48.7943369997433)
2.4625036;48.7931002997436;restaurant;Traiteur Paulina;;94028;Créteil;POINT (2.4625036 48.7931002997436)
2.5332693;48.7946777997432;books;Petites Histoires Entre Amis;;94019;Chennevières-sur-Marne;POINT (2.5332693 48.7946777997432)
2.5524842;48.8034899997411;supermarket;Le Marché Franprix;;94019;Chennevières-sur-Marne;POINT (2.5524842 48.8034899997411)
2.4881375;48.7645542997507;pharmacy;Parapharmacie;;94011;Bonneuil-sur-Marne;POINT (2.4881375 48.7645542997507)
2.4255746;48.7898263997445;fast_food;;;94002;Alfortville;POINT (2.4255746 48.7898263997445)
2.4589172;48.7951462997431;cafe;Le Commerce;;94028;Créteil;POINT (2.4589172 48.7951462997431)
2.5305978;48.7873581997451;restaurant;Le Bonheur de Chine;;94019;Chennevières-sur-Marne;POINT (2.5305978 48.7873581997451)
2.5752348;48.8092689997396;restaurant;Sunset Pizza;;94059;Le Plessis-Trévise;POINT (2.5752348 48.8092689997396)
2.4568755;48.7798092997469;bakery;Paul;;94028;Créteil;POINT (2.4568755 48.7798092997469)
2.5125687;48.7692537997495;cafe;;;94071;Sucy-en-Brie;POINT (2.5125687 48.7692537997495)
2.5060884;48.7530404997536;pharmacy;;;94004;Boissy-Saint-Léger;POINT (2.5060884 48.7530404997536)
2.5036438;48.7438399997559;pharmacy;Pharmacie Marguerie;;94044;Limeil-Brévannes;POINT (2.5036438 48.7438399997559)
2.5203719;48.7698720997494;restaurant;On Mange Où;;94071;Sucy-en-Brie;POINT (2.5203719 48.7698720997494)
2.4469876;48.7760702997479;fast_food;;;94028;Créteil;POINT (2.4469876 48.7760702997479)
2.4201481;48.8049121997407;bar;Café l'Addict;;94002;Alfortville;POINT (2.4201481 48.8049121997407)
2.524586;48.8003730997418;restaurant;La Veranda;;94019;Chennevières-sur-Marne;POINT (2.524586 48.8003730997418)
2.5331654;48.7669440997501;supermarket;;;94071;Sucy-en-Brie;POINT (2.5331654 48.7669440997501)
2.529743;48.7277828997598;fast_food;Sushi You;;94075;Villecresnes;POINT (2.529743 48.7277828997598)
2.5110036;48.7760063997479;bar;Casa dos Leitoes;;94071;Sucy-en-Brie;POINT (2.5110036 48.7760063997479)
2.4223122;48.8040005997409;supermarket;Franprix;;94002;Alfortville;POINT (2.4223122 48.8040005997409)
2.5597984;48.7960424997429;supermarket;Lidl;;94019;Chennevières-sur-Marne;POINT (2.5597984 48.7960424997429)
2.5337722;48.7960410997429;restaurant;Le Rialto;;94019;Chennevières-sur-Marne;POINT (2.5337722 48.7960410997429)
2.5729264;48.8104773997393;restaurant;Delice De Plessis;9 Avenue du Général de Gaulle;94059;Le Plessis-Trévise;POINT (2.5729264 48.8104773997393)
2.4727925;48.7780062997474;pharmacy;Pharmacie TEP SALY;;94028;Créteil;POINT (2.4727925 48.7780062997474)
2.4186725;48.8057769997405;pharmacy;Pharmacie de l'Hôtel de Ville;;94002;Alfortville;POINT (2.4186725 48.8057769997405)
2.4567857;48.779696999747;pharmacy;Pharmacie Soumet;;94028;Créteil;POINT (2.4567857 48.779696999747)
2.418493;48.8065966997403;bakery;La Merveille des Délices;;94002;Alfortville;POINT (2.418493 48.8065966997403)
2.4242863;48.803876899741;bakery;Boulangerie;;94002;Alfortville;POINT (2.4242863 48.803876899741)
2.5747134;48.7896717997445;pharmacy;Pharmacie de la Mairie;;94060;La Queue-en-Brie;POINT (2.5747134 48.7896717997445)
2.4525514;48.7862498997453;pharmacy;Pharmacie Bembaron;;94028;Créteil;POINT (2.4525514 48.7862498997453)
2.4630929;48.7772005997476;supermarket;Lidl;;94028;Créteil;POINT (2.4630929 48.7772005997476)
2.5337622;48.7954134997431;pharmacy;Pharmacie des Terrasses;;94019;Chennevières-sur-Marne;POINT (2.5337622 48.7954134997431)
2.5758605;48.8092022997397;restaurant;Marco Polo;29 Avenue du Général de Gaulle;94059;Le Plessis-Trévise;POINT (2.5758605 48.8092022997397)
2.4576024;48.779588999747;restaurant;Les Burgers de Papa;;94028;Créteil;POINT (2.4576024 48.779588999747)
2.526636;48.7627818997512;restaurant;O Castelo;;94071;Sucy-en-Brie;POINT (2.526636 48.7627818997512)
2.5081068;48.7701535997493;fast_food;Min's;;94071;Sucy-en-Brie;POINT (2.5081068 48.7701535997493)
2.5784356;48.7801398997469;bar;L'Espérancia;;94060;La Queue-en-Brie;POINT (2.5784356 48.7801398997469)
2.4870506;48.7726291997487;pharmacy;Pharmacie CHEAV;;94011;Bonneuil-sur-Marne;POINT (2.4870506 48.7726291997487)
2.5115566;48.7501051997543;bakery;La Gourmandise;;94004;Boissy-Saint-Léger;POINT (2.5115566 48.7501051997543)
2.5080243;48.7698680997494;restaurant;Restaurant Réunionais;;94071;Sucy-en-Brie;POINT (2.5080243 48.7698680997494)
2.5090107;48.7711788997491;bakery;Au Sucycien;;94071;Sucy-en-Brie;POINT (2.5090107 48.7711788997491)
2.4138288;48.8144605997383;bar;Le Diplomate;16 Rue Charles de Gaulle;94002;Alfortville;POINT (2.4138288 48.8144605997383)
2.45643;48.7797999997469;sports;Go Sport Créteil;110 Avenue du Général de Gaulle;94028;Créteil;POINT (2.45643 48.7797999997469)
2.4652417;48.7908490997442;fast_food;O'Tacos;;94028;Créteil;POINT (2.4652417 48.7908490997442)
2.4182013;48.8064988997403;books;L'Établi;148 Rue Paul Vaillant Couturier;94002;Alfortville;POINT (2.4182013 48.8064988997403)
2.5060525;48.7529798997536;bakery;Le Point Chaud;;94004;Boissy-Saint-Léger;POINT (2.5060525 48.7529798997536)
2.4259841;48.7960064997429;cafe;Paddock 29;;94002;Alfortville;POINT (2.4259841 48.7960064997429)
2.4632988;48.7963963997428;bakery;L'Amandine;;94028;Créteil;POINT (2.4632988 48.7963963997428)
2.4907521;48.751504499754;restaurant;Le Président;1 Avenue du Président Wilson;94044;Limeil-Brévannes;POINT (2.4907521 48.751504499754)
2.4869596;48.7667551997502;supermarket;L'Eau Vive;;94011;Bonneuil-sur-Marne;POINT (2.4869596 48.7667551997502)
2.5520703;48.7762505997478;pharmacy;Pharmacie de la Pépinière;;94053;Noiseau;POINT (2.5520703 48.7762505997478)
2.5297564;48.7868960997452;bakery;Boulangerie du Moulin;;94019;Chennevières-sur-Marne;POINT (2.5297564 48.7868960997452)
2.4257433;48.7864626997453;fast_food;Fêtacrepe;;94002;Alfortville;POINT (2.4257433 48.7864626997453)
2.4255641;48.7881549997449;bar;;Rue Étienne Dolet;94002;Alfortville;POINT (2.4255641 48.7881549997449)
2.4541995;48.7905155997443;pharmacy;Pharmacie Bauer;Rue des Méches;94028;Créteil;POINT (2.4541995 48.7905155997443)
2.541157;48.8014434997416;fast_food;Domino's Pizza;;94019;Chennevières-sur-Marne;POINT (2.541157 48.8014434997416)
2.4232558;48.7991934997421;bar;Reina;;94002;Alfortville;POINT (2.4232558 48.7991934997421)
2.5705349;48.8102102997394;fast_food;Rotisserie du Plessis;12 Avenue du Général Leclerc;94059;Le Plessis-Trévise;POINT (2.5705349 48.8102102997394)
2.4831456;48.7505599997542;bakery;Boulangerie Pâtisserie;;94044;Limeil-Brévannes;POINT (2.4831456 48.7505599997542)
2.4238061;48.7977553997425;fast_food;Le H;;94002;Alfortville;POINT (2.4238061 48.7977553997425)
2.5267845;48.7092972997644;supermarket;Real discount Market;3 Rue du Salle;94075;Villecresnes;POINT (2.5267845 48.7092972997644)
2.5328313;48.722923199761;fast_food;;;94075;Villecresnes;POINT (2.5328313 48.722923199761)
2.5729075;48.7158669997628;bakery;;;94070;Santeny;POINT (2.5729075 48.7158669997628)
2.4626533;48.7923223997439;restaurant;C La Que C Bon;;94028;Créteil;POINT (2.4626533 48.7923223997439)
2.4139108;48.8136523997386;restaurant;La Paillotte;34 Rue Véron;94002;Alfortville;POINT (2.4139108 48.8136523997386)
2.5053919;48.7525842997537;fast_food;Tamaris;;94004;Boissy-Saint-Léger;POINT (2.5053919 48.7525842997537)
2.4650023;48.8059130997404;restaurant;Yoshinoya;;94028;Créteil;POINT (2.4650023 48.8059130997404)
2.5483192;48.7971034997426;restaurant;Free Pizza;;94055;Ormesson-sur-Marne;POINT (2.5483192 48.7971034997426)
2.4530536;48.7977315997425;fast_food;Cafétéria;;94028;Créteil;POINT (2.4530536 48.7977315997425)
2.4478001;48.7954541997431;cafe;Aux Arcades;Avenue du Général de Gaulle;94028;Créteil;POINT (2.4478001 48.7954541997431)
2.5219377;48.7705890997492;restaurant;;;94071;Sucy-en-Brie;POINT (2.5219377 48.7705890997492)
2.425891;48.7862926997453;supermarket;Franprix;;94002;Alfortville;POINT (2.425891 48.7862926997453)
2.5130697;48.7488039997546;pharmacy;;;94004;Boissy-Saint-Léger;POINT (2.5130697 48.7488039997546)
2.5310994;48.7819989997464;restaurant;Le Chemin du Bonheur;;94055;Ormesson-sur-Marne;POINT (2.5310994 48.7819989997464)
2.526315;48.7744491997483;fast_food;;;94071;Sucy-en-Brie;POINT (2.526315 48.7744491997483)
2.421802;48.8011518997417;restaurant;Pizza Hut;;94002;Alfortville;POINT (2.421802 48.8011518997417)
2.4676892;48.7668454997501;bakery;Gourmandises;;94028;Créteil;POINT (2.4676892 48.7668454997501)
2.5207172;48.7692992997496;supermarket;Les Produits de Mathilde;;94071;Sucy-en-Brie;POINT (2.5207172 48.7692992997496)
2.4650969;48.7907478997442;restaurant;Hokkaido;;94028;Créteil;POINT (2.4650969 48.7907478997442)
2.4566149;48.7750386997481;restaurant;L'impérial;;94028;Créteil;POINT (2.4566149 48.7750386997481)
2.5354909;48.7920842997439;supermarket;Leader Price;13 Rue du Belvédère;94019;Chennevières-sur-Marne;POINT (2.5354909 48.7920842997439)
2.4174193;48.8094359997396;bakery;Le Petit Gourmet;;94002;Alfortville;POINT (2.4174193 48.8094359997396)
2.4155805;48.8136849997385;restaurant;Sarah Lima Traiteur Brésilien;30 Rue Paul Vaillant Couturier;94002;Alfortville;POINT (2.4155805 48.8136849997385)
2.4149915;48.8099773997395;restaurant;La Rôtisserie;12 Rue de Seine;94002;Alfortville;POINT (2.4149915 48.8099773997395)
2.413491;48.8050837997407;supermarket;Leader Price;;94002;Alfortville;POINT (2.413491 48.8050837997407)
2.4224912;48.8000691997419;bakery;Boulangerie;;94002;Alfortville;POINT (2.4224912 48.8000691997419)
2.4149154;48.8146308997383;restaurant;Grill Istanbul;21 Rue Charles de Gaulle;94002;Alfortville;POINT (2.4149154 48.8146308997383)
2.5217382;48.7816891997465;pharmacy;Pharmacie des Châtelets;9 Rue Édouard Branly;94055;Ormesson-sur-Marne;POINT (2.5217382 48.7816891997465)
2.45003432125004;48.7897132013421;supermarket;G20;;94028;Créteil;POINT (2.45003432125004 48.7897132013421)
2.54876593313304;48.7968424525142;restaurant;Le Celeste;;94055;Ormesson-sur-Marne;POINT (2.54876593313304 48.7968424525142)
2.53365703838559;48.7991586325098;restaurant;Bairrada;;94019;Chennevières-sur-Marne;POINT (2.53365703838559 48.7991586325098)
2.43677333442637;48.7857938167319;fast_food;Burger Addict;128 Avenue du Maréchal Foch;94028;Créteil;POINT (2.43677333442637 48.7857938167319)
2.56884375630816;48.7822661942037;restaurant;Bufallo Grill;;94060;La Queue-en-Brie;POINT (2.56884375630816 48.7822661942037)
2.54173577170041;48.7279478995488;restaurant;;;94048;Marolles-en-Brie;POINT (2.54173577170041 48.7279478995488)
2.43739097229558;48.7798313254747;fast_food;KFC;;94028;Créteil;POINT (2.43739097229558 48.7798313254747)
2.48450935735763;48.757344215888;supermarket;Chronodrive;;94011;Bonneuil-sur-Marne;POINT (2.48450935735763 48.757344215888)
2.44772723079431;48.7934076170803;variety_store;GiFi;66 Avenue du Général de Gaulle;94028;Créteil;POINT (2.44772723079431 48.7934076170803)
2.55283711036511;48.7602509923649;restaurant;La Terrasse Fleurie;;94071;Sucy-en-Brie;POINT (2.55283711036511 48.7602509923649)
2.45874282857478;48.7801736805242;cinema;UGC Ciné Cité Créteil;;94028;Créteil;POINT (2.45874282857478 48.7801736805242)
2.57012227915326;48.8117900352007;supermarket;Super U;;94059;Le Plessis-Trévise;POINT (2.57012227915326 48.8117900352007)
2.47695768190411;48.7648404265955;fast_food;Burger King;;94011;Bonneuil-sur-Marne;POINT (2.47695768190411 48.7648404265955)
2.56551773509544;48.7197744733572;restaurant;Ristorante Del Arte;Rue du Noyer Saint-Germain;94070;Santeny;POINT (2.56551773509544 48.7197744733572)
2.55323008079192;48.7943092031089;restaurant;Saveurs Gourmandes;;94055;Ormesson-sur-Marne;POINT (2.55323008079192 48.7943092031089)
2.42585157011467;48.7876177195243;fast_food;O'Tacos;135 Rue Étienne Dolet;94002;Alfortville;POINT (2.42585157011467 48.7876177195243)
2.45733100792339;48.8048814376672;supermarket;Carrefour City;;94028;Créteil;POINT (2.45733100792339 48.8048814376672)
2.44210346265234;48.7740586334223;restaurant;Courtepaille;;94028;Créteil;POINT (2.44210346265234 48.7740586334223)
2.4402386283446;48.7731396846882;fast_food;Quick;;94028;Créteil;POINT (2.4402386283446 48.7731396846882)
2.54972465472434;48.7574799423024;supermarket;Franprix;;94071;Sucy-en-Brie;POINT (2.54972465472434 48.7574799423024)
2.4906204218548;48.7702171315392;fast_food;KFC;;94011;Bonneuil-sur-Marne;POINT (2.4906204218548 48.7702171315392)
2.42557911391499;48.8027940621969;bar;Bar tabac de la gare;;94002;Alfortville;POINT (2.42557911391499 48.8027940621969)
2.55029206657761;48.7959320953498;restaurant;Le Chyll;;94055;Ormesson-sur-Marne;POINT (2.55029206657761 48.7959320953498)
2.48564393420926;48.7670711063888;restaurant;;;94011;Bonneuil-sur-Marne;POINT (2.48564393420926 48.7670711063888)
2.4379360934604;48.775109137114;sports;Decathlon Créteil;Carrefour Pompadour;94028;Créteil;POINT (2.4379360934604 48.775109137114)
2.53727532258248;48.7877950834415;restaurant;Belmondo;;94055;Ormesson-sur-Marne;POINT (2.53727532258248 48.7877950834415)
2.46313469667096;48.7786208150939;mall;Centre Commercial Gabriel Fauré;;94028;Créteil;POINT (2.46313469667096 48.7786208150939)
2.56723482851179;48.718757847841;restaurant;Le Moulin;;94070;Santeny;POINT (2.56723482851179 48.718757847841)
2.55015210605548;48.7575230736315;pharmacy;Pharmacie Casanova Pironneau;;94071;Sucy-en-Brie;POINT (2.55015210605548 48.7575230736315)
2.49780043319006;48.7733630139926;restaurant;Ristorante Del Arte;Zac Le Petit Marais;94071;Sucy-en-Brie;POINT (2.49780043319006 48.7733630139926)
2.44266881321478;48.7741063251868;restaurant;Factory's;;94028;Créteil;POINT (2.44266881321478 48.7741063251868)
